{"type": "FeatureCollection", "features": [ {"type": "Feature", "properties": {"norad_id": 66795, "name": "STARLINK-36047", "group": "last-30-days", "lat": 10.820325568690368, "lon": -95.25711432566264, "alt_km": 306.06622479502767, "timestamp": "2025-12-12T14:39:16.772524+00:00", "meta": {"OBJECT_NAME": "STARLINK-36047", "OBJECT_ID": "2025-278E", "EPOCH": "2025-12-12T04:01:33.046176", "MEAN_MOTION": 15.8882151, "ECCENTRICITY": 0.00030344, "INCLINATION": 42.9974, "RA_OF_ASC_NODE": 255.648, "ARG_OF_PERICENTER": 242.2828, "MEAN_ANOMALY": 117.7739, "EPHEMERIS_TYPE": 0, "CLASSIFICATION_TYPE": "U", "NORAD_CAT_ID": 66795, "ELEMENT_SET_NO": 999, "REV_AT_EPOCH": 174, "BSTAR": -0.0011919712, "MEAN_MOTION_DOT": -0.00337062, "MEAN_MOTION_DDOT": 0}, "tle": {"line1": "1 66795U 25278E   25346.16774359 -.00337062  00000+0 -11920-2 0  9996", "line2": "2 66795  42.9974 255.6480 0003034 242.2828 117.7739 15.88821510  1744"}}, "geometry": {"type": "Point", "coordinates": [-95.25711432566264, 10.820325568690368]}}, {"type": "Feature", "properties": {"norad_id": 66796, "name": "STARLINK-35964", "group": "last-30-days", "lat": -23.755202604015444, "lon": -136.06680177347, "alt_km": 269.6363143312392, "timestamp": "2025-12-12T14:39:16.772533+00:00", "meta": {"OBJECT_NAME": "STARLINK-35964", "OBJECT_ID": "2025-278F", "EPOCH": "2025-12-12T04:20:03.122016", "MEAN_MOTION": 16.02708436, "ECCENTRICITY": 0.00023375, "INCLINATION": 42.9961, "RA_OF_ASC_NODE": 254.8394, "ARG_OF_PERICENTER": 272.9994, "MEAN_ANOMALY": 87.0618, "EPHEMERIS_TYPE": 0, "CLASSIFICATION_TYPE": "U", "NORAD_CAT_ID": 66796, "ELEMENT_SET_NO": 999, "REV_AT_EPOCH": 175, "BSTAR": -0.0010735075, "MEAN_MOTION_DOT": -0.00673194, "MEAN_MOTION_DDOT": 0.00016484962}, "tle": {"line1": "1 66796U 25278F   25346.18059169 -.00673194  16485-3 -10735-2 0  9994", "line2": "2 66796  42.9961 254.8394 0002337 272.9994  87.0618 16.02708436  1759"}}, "geometry": {"type": "Point", "coordinates": [-136.06680177347, -23.755202604015444]}}, {"type": "Feature", "properties": {"norad_id": 66797, "name": "STARLINK-36099", "group": "last-30-days", "lat": 14.242441400119514, "lon": -91.29798521237353, "alt_km": 304.00786096350475, "timestamp": "2025-12-12T14:39:16.772542+00:00", "meta": {"OBJECT_NAME": "STARLINK-36099", "OBJECT_ID": "2025-278G", "EPOCH": "2025-12-12T05:30:44.088480", "MEAN_MOTION": 15.88668496, "ECCENTRICITY": 0.00017331, "INCLINATION": 42.9978, "RA_OF_ASC_NODE": 255.252, "ARG_OF_PERICENTER": 313.1323, "MEAN_ANOMALY": 46.9407, "EPHEMERIS_TYPE": 0, "CLASSIFICATION_TYPE": "U", "NORAD_CAT_ID": 66797, "ELEMENT_SET_NO": 999, "REV_AT_EPOCH": 175, "BSTAR": -0.0012775998, "MEAN_MOTION_DOT": -0.00357486, "MEAN_MOTION_DDOT": 0}, "tle": {"line1": "1 66797U 25278G   25346.22967695 -.00357486  00000+0 -12776-2 0  9994", "line2": "2 66797  42.9978 255.2520 0001733 313.1323  46.9407 15.88668496  1751"}}, "geometry": {"type": "Point", "coordinates": [-91.29798521237353, 14.242441400119514]}}, {"type": "Feature", "properties": {"norad_id": 66798, "name": "STARLINK-36041", "group": "last-30-days", "lat": 15.658231647647396, "lon": -89.60437538886795, "alt_km": 304.190749519561, "timestamp": "2025-12-12T14:39:16.772552+00:00", "meta": {"OBJECT_NAME": "STARLINK-36041", "OBJECT_ID": "2025-278H", "EPOCH": "2025-12-12T05:30:12.510144", "MEAN_MOTION": 15.88714411, "ECCENTRICITY": 0.00017631, "INCLINATION": 42.9982, "RA_OF_ASC_NODE": 255.249, "ARG_OF_PERICENTER": 287.3782, "MEAN_ANOMALY": 72.6899, "EPHEMERIS_TYPE": 0, "CLASSIFICATION_TYPE": "U", "NORAD_CAT_ID": 66798, "ELEMENT_SET_NO": 999, "REV_AT_EPOCH": 175, "BSTAR": -0.0011876744, "MEAN_MOTION_DOT": -0.00334004, "MEAN_MOTION_DDOT": 0}, "tle": {"line1": "1 66798U 25278H   25346.22931146 -.00334004  00000+0 -11877-2 0  9999", "line2": "2 66798  42.9982 255.2490 0001763 287.3782  72.6899 15.88714411  1757"}}, "geometry": {"type": "Point", "coordinates": [-89.60437538886795, 15.658231647647396]}}, {"type": "Feature", "properties": {"norad_id": 66799, "name": "STARLINK-36044", "group": "last-30-days", "lat": 17.107539211254696, "lon": -87.829203796546, "alt_km": 304.0420716357203, "timestamp": "2025-12-12T14:39:16.772561+00:00", "meta": {"OBJECT_NAME": "STARLINK-36044", "OBJECT_ID": "2025-278J", "EPOCH": "2025-12-12T05:29:38.054688", "MEAN_MOTION": 15.88703875, "ECCENTRICITY": 0.00017957, "INCLINATION": 42.998, "RA_OF_ASC_NODE": 255.2453, "ARG_OF_PERICENTER": 292.9064, "MEAN_ANOMALY": 67.1621, "EPHEMERIS_TYPE": 0, "CLASSIFICATION_TYPE": "U", "NORAD_CAT_ID": 66799, "ELEMENT_SET_NO": 999, "REV_AT_EPOCH": 175, "BSTAR": -0.0013901918, "MEAN_MOTION_DOT": -0.00388315, "MEAN_MOTION_DDOT": 0}, "tle": {"line1": "1 66799U 25278J   25346.22891267 -.00388315  00000+0 -13902-2 0  9994", "line2": "2 66799  42.9980 255.2453 0001795 292.9064  67.1621 15.88703875  1759"}}, "geometry": {"type": "Point", "coordinates": [-87.829203796546, 17.107539211254696]}}, {"type": "Feature", "properties": {"norad_id": 66800, "name": "STARLINK-35996", "group": "last-30-days", "lat": 20.48045480399335, "lon": -83.50007054683853, "alt_km": 302.796516530806, "timestamp": "2025-12-12T14:39:16.772570+00:00", "meta": {"OBJECT_NAME": "STARLINK-35996", "OBJECT_ID": "2025-278K", "EPOCH": "2025-12-12T05:28:26.683968", "MEAN_MOTION": 15.88998178, "ECCENTRICITY": 0.00026789, "INCLINATION": 42.9971, "RA_OF_ASC_NODE": 255.2375, "ARG_OF_PERICENTER": 270.4217, "MEAN_ANOMALY": 89.635, "EPHEMERIS_TYPE": 0, "CLASSIFICATION_TYPE": "U", "NORAD_CAT_ID": 66800, "ELEMENT_SET_NO": 999, "REV_AT_EPOCH": 175, "BSTAR": -0.00018679361, "MEAN_MOTION_DOT": -0.00055478, "MEAN_MOTION_DDOT": 0}, "tle": {"line1": "1 66800U 25278K   25346.22808662 -.00055478  00000+0 -18679-3 0  9992", "line2": "2 66800  42.9971 255.2375 0002678 270.4217  89.6350 15.88998178  1757"}}, "geometry": {"type": "Point", "coordinates": [-83.50007054683853, 20.48045480399335]}}, {"type": "Feature", "properties": {"norad_id": 66801, "name": "STARLINK-36080", "group": "last-30-days", "lat": 26.997634445966465, "lon": -74.012414584246, "alt_km": 302.3549468330857, "timestamp": "2025-12-12T14:39:16.772579+00:00", "meta": {"OBJECT_NAME": "STARLINK-36080", "OBJECT_ID": "2025-278L", "EPOCH": "2025-12-12T05:25:36.869088", "MEAN_MOTION": 15.88852509, "ECCENTRICITY": 0.00017066, "INCLINATION": 42.9976, "RA_OF_ASC_NODE": 255.2211, "ARG_OF_PERICENTER": 296.3258, "MEAN_ANOMALY": 63.7441, "EPHEMERIS_TYPE": 0, "CLASSIFICATION_TYPE": "U", "NORAD_CAT_ID": 66801, "ELEMENT_SET_NO": 999, "REV_AT_EPOCH": 175, "BSTAR": -0.0014714029, "MEAN_MOTION_DOT": -0.00412922, "MEAN_MOTION_DDOT": 0}, "tle": {"line1": "1 66801U 25278L   25346.22612117 -.00412922  00000+0 -14714-2 0  9997", "line2": "2 66801  42.9976 255.2211 0001706 296.3258  63.7441 15.88852509  1756"}}, "geometry": {"type": "Point", "coordinates": [-74.012414584246, 26.997634445966465]}}, {"type": "Feature", "properties": {"norad_id": 66802, "name": "STARLINK-35604", "group": "last-30-days", "lat": 18.427715969048343, "lon": -86.17071492289342, "alt_km": 303.47913065172634, "timestamp": "2025-12-12T14:39:16.772588+00:00", "meta": {"OBJECT_NAME": "STARLINK-35604", "OBJECT_ID": "2025-278M", "EPOCH": "2025-12-12T05:29:06.885888", "MEAN_MOTION": 15.88706217, "ECCENTRICITY": 0.00016948, "INCLINATION": 42.9982, "RA_OF_ASC_NODE": 255.2421, "ARG_OF_PERICENTER": 313.5855, "MEAN_ANOMALY": 46.4878, "EPHEMERIS_TYPE": 0, "CLASSIFICATION_TYPE": "U", "NORAD_CAT_ID": 66802, "ELEMENT_SET_NO": 999, "REV_AT_EPOCH": 175, "BSTAR": -0.0014575015, "MEAN_MOTION_DOT": -0.00406314, "MEAN_MOTION_DDOT": 0}, "tle": {"line1": "1 66802U 25278M   25346.22855192 -.00406314  00000+0 -14575-2 0  9993", "line2": "2 66802  42.9982 255.2421 0001694 313.5855  46.4878 15.88706217  1754"}}, "geometry": {"type": "Point", "coordinates": [-86.17071492289342, 18.427715969048343]}}, {"type": "Feature", "properties": {"norad_id": 66803, "name": "STARLINK-35565", "group": "last-30-days", "lat": 21.36282304179763, "lon": -82.31337023879361, "alt_km": 303.11890370650053, "timestamp": "2025-12-12T14:39:16.772596+00:00", "meta": {"OBJECT_NAME": "STARLINK-35565", "OBJECT_ID": "2025-278N", "EPOCH": "2025-12-12T05:27:57.664800", "MEAN_MOTION": 15.88763983, "ECCENTRICITY": 0.00016385, "INCLINATION": 42.9978, "RA_OF_ASC_NODE": 255.2353, "ARG_OF_PERICENTER": 304.3709, "MEAN_ANOMALY": 55.701, "EPHEMERIS_TYPE": 0, "CLASSIFICATION_TYPE": "U", "NORAD_CAT_ID": 66803, "ELEMENT_SET_NO": 999, "REV_AT_EPOCH": 175, "BSTAR": -0.0014239095, "MEAN_MOTION_DOT": -0.00398459, "MEAN_MOTION_DDOT": 0}, "tle": {"line1": "1 66803U 25278N   25346.22775075 -.00398459  00000+0 -14239-2 0  9992", "line2": "2 66803  42.9978 255.2353 0001638 304.3709  55.7010 15.88763983  1752"}}, "geometry": {"type": "Point", "coordinates": [-82.31337023879361, 21.36282304179763]}}, {"type": "Feature", "properties": {"norad_id": 66804, "name": "STARLINK-36038", "group": "last-30-days", "lat": 22.959111604880434, "lon": -80.09839383947764, "alt_km": 303.0165551646978, "timestamp": "2025-12-12T14:39:16.772605+00:00", "meta": {"OBJECT_NAME": "STARLINK-36038", "OBJECT_ID": "2025-278P", "EPOCH": "2025-12-12T05:27:18.631008", "MEAN_MOTION": 15.88780699, "ECCENTRICITY": 0.00018569, "INCLINATION": 42.9982, "RA_OF_ASC_NODE": 255.2321, "ARG_OF_PERICENTER": 299.042, "MEAN_ANOMALY": 61.0268, "EPHEMERIS_TYPE": 0, "CLASSIFICATION_TYPE": "U", "NORAD_CAT_ID": 66804, "ELEMENT_SET_NO": 999, "REV_AT_EPOCH": 175, "BSTAR": -0.0014750056, "MEAN_MOTION_DOT": -0.00412474, "MEAN_MOTION_DDOT": 0}, "tle": {"line1": "1 66804U 25278P   25346.22729897 -.00412474  00000+0 -14750-2 0  9996", "line2": "2 66804  42.9982 255.2321 0001856 299.0420  61.0268 15.88780699  1753"}}, "geometry": {"type": "Point", "coordinates": [-80.09839383947764, 22.959111604880434]}}]}